[{"OBJECT_NAME":"STARLINK-34921","OBJECT_ID":"2025-224M","EPOCH":"2026-03-09T05:55:00.064128","MEAN_MOTION":15.30189284,"ECCENTRICITY":0.00011851,"INCLINATION":53.162,"RA_OF_ASC_NODE":13.6012,"ARG_OF_PERICENTER":69.962,"MEAN_ANOMALY":290.1508,"EPHEMERIS_TYPE":0,"CLASSIFICATION_TYPE":"U","NORAD_CAT_ID":65893,"ELEMENT_SET_NO":999,"REV_AT_EPOCH":2480,"BSTAR":0.0013171961,"MEAN_MOTION_DOT":0.00038843,"MEAN_MOTION_DDOT":0},{"OBJECT_NAME":"ARC-1","OBJECT_ID":"2015-058F","EPOCH":"2026-03-09T11:16:24.767040","MEAN_MOTION":15.39473048,"ECCENTRICITY":0.00404032,"INCLINATION":64.7636,"RA_OF_ASC_NODE":93.5186,"ARG_OF_PERICENTER":65.9865,"MEAN_ANOMALY":294.5492,"EPHEMERIS_TYPE":0,"CLASSIFICATION_TYPE":"U","NORAD_CAT_ID":40969,"ELEMENT_SET_NO":999,"REV_AT_EPOCH":10163,"BSTAR":0.0010773685,"MEAN_MOTION_DOT":0.00043725,"MEAN_MOTION_DDOT":0}]
